ONEWEB-0018             
1 45434U 20020L   24223.83888761 -.00000459  00000+0 -13317-2 0  9992
2 45434  87.8999 155.5156 0001912  76.2430 283.8911 13.11416603214112
ONEWEB-0083             
1 45435U 20020M   24223.82870393 -.00000211  00000+0 -63235-3 0  9995
2 45435  87.8998 155.4991 0002024  78.3077 281.8278 13.11413932214153
ONEWEB-0095             
1 45436U 20020N   24223.89667495  .00000162  00000+0  42248-3 0  9994
2 45436  87.8996 155.5193 0002751  88.5078 271.6365 13.11413670214162
ONEWEB-0092             
1 45437U 20020P   24223.86346331  .00000215  00000+0  57050-3 0  9991
2 45437  87.9000 155.5084 0002352  78.8119 281.3273 13.11420989214273
ONEWEB-0085             
1 45438U 20020Q   24223.89823319  .00000065  00000+0  14765-3 0  9990
2 45438  87.9000 155.5094 0001942  75.0811 285.0531 13.11414190214160
ONEWEB-0096             
1 45439U 20020R   24223.83040788 -.00000249  00000+0 -73861-3 0  9994
2 45439  87.8998 155.4928 0001923  72.0478 288.0860 13.11414284214146
ONEWEB-0037             
1 45440U 20020S   24223.81180550  .00000147  00000+0  37981-3 0  9994
2 45440  87.8994 155.4781 0002290  78.0863 282.0522 13.11397008214179
ONEWEB-0042             
1 45441U 20020T   24223.82010241  .00000044  00000+0  89547-4 0  9997
2 45441  87.8996 155.5085 0002027  75.7555 284.3798 13.11413091214148
